{"fetched_at":"2026-07-21T07:07:11.421Z","source":"https://celestrak.org/NORAD/elements/gp.php?NAME=SENTINEL&FORMAT=JSON","constellation":"sentinel-1","records":[{"OBJECT_NAME":"SENTINEL-1A","OBJECT_ID":"2014-016A","EPOCH":"2026-07-20T23:13:15.739392","CLASSIFICATION_TYPE":"U","MEAN_MOTION":14.59173566,"ECCENTRICITY":0.00014337,"INCLINATION":98.1737,"RA_OF_ASC_NODE":209.0049,"ARG_OF_PERICENTER":84.6678,"MEAN_ANOMALY":275.4685,"EPHEMERIS_TYPE":0,"NORAD_CAT_ID":39634,"ELEMENT_SET_NO":999,"REV_AT_EPOCH":65494,"BSTAR":0.000005262272,"MEAN_MOTION_DOT":-2.1e-7,"MEAN_MOTION_DDOT":0},{"OBJECT_NAME":"SENTINEL-1C","OBJECT_ID":"2024-235A","EPOCH":"2026-07-20T22:31:10.014240","CLASSIFICATION_TYPE":"U","MEAN_MOTION":14.59198901,"ECCENTRICITY":0.00013892,"INCLINATION":98.1825,"RA_OF_ASC_NODE":208.7678,"ARG_OF_PERICENTER":89.4954,"MEAN_ANOMALY":270.6405,"EPHEMERIS_TYPE":0,"NORAD_CAT_ID":62261,"ELEMENT_SET_NO":999,"REV_AT_EPOCH":8633,"BSTAR":0.000030695332,"MEAN_MOTION_DOT":9.9e-7,"MEAN_MOTION_DDOT":0},{"OBJECT_NAME":"SENTINEL-1D","OBJECT_ID":"2025-251A","EPOCH":"2026-07-20T21:42:01.166688","CLASSIFICATION_TYPE":"U","MEAN_MOTION":14.59197606,"ECCENTRICITY":0.00013721,"INCLINATION":98.183,"RA_OF_ASC_NODE":208.7895,"ARG_OF_PERICENTER":87.6859,"MEAN_ANOMALY":272.4498,"EPHEMERIS_TYPE":0,"NORAD_CAT_ID":66315,"ELEMENT_SET_NO":999,"REV_AT_EPOCH":3764,"BSTAR":0.000007977161,"MEAN_MOTION_DOT":-8e-8,"MEAN_MOTION_DDOT":0}]}
