SENTINEL-1A             
1 39634U 14016A   26201.96754328 -.00000021  00000+0  52623-5 0  9998
2 39634  98.1737 209.0049 0001433  84.6678 275.4685 14.59173566654948
SENTINEL-1C             
1 62261U 24235A   26201.93831035  .00000099  00000+0  30695-4 0  9990
2 62261  98.1825 208.7678 0001389  89.4954 270.6405 14.59198901 86331
SENTINEL-1D             
1 66315U 25251A   26201.90418017 -.00000008  00000+0  79772-5 0  9992
2 66315  98.1830 208.7895 0001372  87.6859 272.4498 14.59197606 37641
